CCSDS_OMM_VERS = 2.0
CREATION_DATE  = 
ORIGINATOR     = 

OBJECT_NAME    = STARLINK-36810
OBJECT_ID      = 2026-035V
CENTER_NAME    = EARTH
REF_FRAME      = TEME
TIME_SYSTEM    = UTC
MEAN_ELEMENT_THEORY = SGP/SGP4

EPOCH          = 2026-03-10T04:00:01.999584
MEAN_MOTION    = 15.85994939
ECCENTRICITY   = .0001332
INCLINATION    = 97.2677
RA_OF_ASC_NODE = 1.5510
ARG_OF_PERICENTER = 91.9546
MEAN_ANOMALY   = 14.2662

EPHEMERIS_TYPE = 0
CLASSIFICATION_TYPE = U
NORAD_CAT_ID   = 67898
ELEMENT_SET_NO = 999
REV_AT_EPOCH   = 383
BSTAR          = -.58853E-2
MEAN_MOTION_DOT = -.1273193E-1
MEAN_MOTION_DDOT = 0

CCSDS_OMM_VERS = 2.0
CREATION_DATE  = 
ORIGINATOR     = 

OBJECT_NAME    = STARLINK-36878
OBJECT_ID      = 2026-035W
CENTER_NAME    = EARTH
REF_FRAME      = TEME
TIME_SYSTEM    = UTC
MEAN_ELEMENT_THEORY = SGP/SGP4

EPOCH          = 2026-03-10T04:00:01.999584
MEAN_MOTION    = 15.85939768
ECCENTRICITY   = .000145
INCLINATION    = 97.2671
RA_OF_ASC_NODE = 1.5547
ARG_OF_PERICENTER = 107.4803
MEAN_ANOMALY   = 7.8437

EPHEMERIS_TYPE = 0
CLASSIFICATION_TYPE = U
NORAD_CAT_ID   = 67899
ELEMENT_SET_NO = 999
REV_AT_EPOCH   = 383
BSTAR          = -.59624E-2
MEAN_MOTION_DOT = -.1284962E-1
MEAN_MOTION_DDOT = 0

CCSDS_OMM_VERS = 2.0
CREATION_DATE  = 
ORIGINATOR     = 

OBJECT_NAME    = STARLINK-36361
OBJECT_ID      = 2026-035X
CENTER_NAME    = EARTH
REF_FRAME      = TEME
TIME_SYSTEM    = UTC
MEAN_ELEMENT_THEORY = SGP/SGP4

EPOCH          = 2026-03-10T04:00:01.999584
MEAN_MOTION    = 15.85888929
ECCENTRICITY   = .0001454
INCLINATION    = 97.2669
RA_OF_ASC_NODE = 1.5567
ARG_OF_PERICENTER = 107.5580
MEAN_ANOMALY   = 12.4847

EPHEMERIS_TYPE = 0
CLASSIFICATION_TYPE = U
NORAD_CAT_ID   = 67900
ELEMENT_SET_NO = 999
REV_AT_EPOCH   = 383
BSTAR          = -.59974E-2
MEAN_MOTION_DOT = -.1288798E-1
MEAN_MOTION_DDOT = 0

CCSDS_OMM_VERS = 2.0
CREATION_DATE  = 
ORIGINATOR     = 

OBJECT_NAME    = STARLINK-36336
OBJECT_ID      = 2026-035Y
CENTER_NAME    = EARTH
REF_FRAME      = TEME
TIME_SYSTEM    = UTC
MEAN_ELEMENT_THEORY = SGP/SGP4

EPOCH          = 2026-03-10T04:00:01.999584
MEAN_MOTION    = 15.85740946
ECCENTRICITY   = .0001437
INCLINATION    = 97.2676
RA_OF_ASC_NODE = 1.5637
ARG_OF_PERICENTER = 97.9565
MEAN_ANOMALY   = 36.3257

EPHEMERIS_TYPE = 0
CLASSIFICATION_TYPE = U
NORAD_CAT_ID   = 67901
ELEMENT_SET_NO = 999
REV_AT_EPOCH   = 388
BSTAR          = -.61997E-2
MEAN_MOTION_DOT = -.1318664E-1
MEAN_MOTION_DDOT = 0

CCSDS_OMM_VERS = 2.0
CREATION_DATE  = 
ORIGINATOR     = 

OBJECT_NAME    = STARLINK-36876
OBJECT_ID      = 2026-035Z
CENTER_NAME    = EARTH
REF_FRAME      = TEME
TIME_SYSTEM    = UTC
MEAN_ELEMENT_THEORY = SGP/SGP4

EPOCH          = 2026-03-10T04:00:01.999584
MEAN_MOTION    = 15.85879583
ECCENTRICITY   = .0001567
INCLINATION    = 97.2676
RA_OF_ASC_NODE = 1.5599
ARG_OF_PERICENTER = 105.1915
MEAN_ANOMALY   = 19.3262

EPHEMERIS_TYPE = 0
CLASSIFICATION_TYPE = U
NORAD_CAT_ID   = 67902
ELEMENT_SET_NO = 999
REV_AT_EPOCH   = 383
BSTAR          = -.60656E-2
MEAN_MOTION_DOT = -.1301294E-1
MEAN_MOTION_DDOT = 0

CCSDS_OMM_VERS = 2.0
CREATION_DATE  = 
ORIGINATOR     = 

OBJECT_NAME    = STARLINK-36257
OBJECT_ID      = 2026-035AA
CENTER_NAME    = EARTH
REF_FRAME      = TEME
TIME_SYSTEM    = UTC
MEAN_ELEMENT_THEORY = SGP/SGP4

EPOCH          = 2026-03-10T04:00:01.999584
MEAN_MOTION    = 15.85852137
ECCENTRICITY   = .0001402
INCLINATION    = 97.2673
RA_OF_ASC_NODE = 1.5607
ARG_OF_PERICENTER = 90.9326
MEAN_ANOMALY   = 38.1529

EPHEMERIS_TYPE = 0
CLASSIFICATION_TYPE = U
NORAD_CAT_ID   = 67903
ELEMENT_SET_NO = 999
REV_AT_EPOCH   = 388
BSTAR          = -.6098E-2
MEAN_MOTION_DOT = -.1305773E-1
MEAN_MOTION_DDOT = 0

CCSDS_OMM_VERS = 2.0
CREATION_DATE  = 
ORIGINATOR     = 

OBJECT_NAME    = STARLINK-36814
OBJECT_ID      = 2026-036A
CENTER_NAME    = EARTH
REF_FRAME      = TEME
TIME_SYSTEM    = UTC
MEAN_ELEMENT_THEORY = SGP/SGP4

EPOCH          = 2026-03-10T04:00:01.999584
MEAN_MOTION    = 15.73666053
ECCENTRICITY   = .0001792
INCLINATION    = 42.9996
RA_OF_ASC_NODE = 246.9617
ARG_OF_PERICENTER = 273.4853
MEAN_ANOMALY   = 129.9141

EPHEMERIS_TYPE = 0
CLASSIFICATION_TYPE = U
NORAD_CAT_ID   = 67904
ELEMENT_SET_NO = 999
REV_AT_EPOCH   = 372
BSTAR          = -.15466E-1
MEAN_MOTION_DOT = -.1979697E-1
MEAN_MOTION_DDOT = 0

CCSDS_OMM_VERS = 2.0
CREATION_DATE  = 
ORIGINATOR     = 

OBJECT_NAME    = STARLINK-36729
OBJECT_ID      = 2026-036B
CENTER_NAME    = EARTH
REF_FRAME      = TEME
TIME_SYSTEM    = UTC
MEAN_ELEMENT_THEORY = SGP/SGP4

EPOCH          = 2026-03-09T23:07:38.664480
MEAN_MOTION    = 15.82119465
ECCENTRICITY   = .0002071
INCLINATION    = 42.9992
RA_OF_ASC_NODE = 248.1201
ARG_OF_PERICENTER = 279.1565
MEAN_ANOMALY   = 80.9072

EPHEMERIS_TYPE = 0
CLASSIFICATION_TYPE = U
NORAD_CAT_ID   = 67905
ELEMENT_SET_NO = 999
REV_AT_EPOCH   = 371
BSTAR          = .13842E-2
MEAN_MOTION_DOT = .302828E-2
MEAN_MOTION_DDOT = 0

CCSDS_OMM_VERS = 2.0
CREATION_DATE  = 
ORIGINATOR     = 

OBJECT_NAME    = STARLINK-36763
OBJECT_ID      = 2026-036C
CENTER_NAME    = EARTH
REF_FRAME      = TEME
TIME_SYSTEM    = UTC
MEAN_ELEMENT_THEORY = SGP/SGP4

EPOCH          = 2026-03-09T21:35:39.581952
MEAN_MOTION    = 15.82061167
ECCENTRICITY   = .0001658
INCLINATION    = 42.9991
RA_OF_ASC_NODE = 248.5006
ARG_OF_PERICENTER = 287.2048
MEAN_ANOMALY   = 72.8643

EPHEMERIS_TYPE = 0
CLASSIFICATION_TYPE = U
NORAD_CAT_ID   = 67906
ELEMENT_SET_NO = 999
REV_AT_EPOCH   = 370
BSTAR          = .90861E-3
MEAN_MOTION_DOT = .195584E-2
MEAN_MOTION_DDOT = 0

CCSDS_OMM_VERS = 2.0
CREATION_DATE  = 
ORIGINATOR     = 

OBJECT_NAME    = STARLINK-36742
OBJECT_ID      = 2026-036D
CENTER_NAME    = EARTH
REF_FRAME      = TEME
TIME_SYSTEM    = UTC
MEAN_ELEMENT_THEORY = SGP/SGP4

EPOCH          = 2026-03-09T21:34:34.583232
MEAN_MOTION    = 15.82098755
ECCENTRICITY   = .0002122
INCLINATION    = 42.9993
RA_OF_ASC_NODE = 248.4956
ARG_OF_PERICENTER = 279.1110
MEAN_ANOMALY   = 80.9522

EPHEMERIS_TYPE = 0
CLASSIFICATION_TYPE = U
NORAD_CAT_ID   = 67907
ELEMENT_SET_NO = 999
REV_AT_EPOCH   = 370
BSTAR          = .1231E-2
MEAN_MOTION_DOT = .267893E-2
MEAN_MOTION_DDOT = 0

CCSDS_OMM_VERS = 2.0
CREATION_DATE  = 
ORIGINATOR     = 

OBJECT_NAME    = STARLINK-36827
OBJECT_ID      = 2026-036E
CENTER_NAME    = EARTH
REF_FRAME      = TEME
TIME_SYSTEM    = UTC
MEAN_ELEMENT_THEORY = SGP/SGP4

EPOCH          = 2026-03-09T23:04:24.660192
MEAN_MOTION    = 15.82117013
ECCENTRICITY   = .0002108
INCLINATION    = 42.9986
RA_OF_ASC_NODE = 248.1012
ARG_OF_PERICENTER = 299.4497
MEAN_ANOMALY   = 60.6164

EPHEMERIS_TYPE = 0
CLASSIFICATION_TYPE = U
NORAD_CAT_ID   = 67908
ELEMENT_SET_NO = 999
REV_AT_EPOCH   = 371
BSTAR          = .15202E-2
MEAN_MOTION_DOT = .3338E-2
MEAN_MOTION_DDOT = 0

CCSDS_OMM_VERS = 2.0
CREATION_DATE  = 
ORIGINATOR     = 

OBJECT_NAME    = STARLINK-36822
OBJECT_ID      = 2026-036F
CENTER_NAME    = EARTH
REF_FRAME      = TEME
TIME_SYSTEM    = UTC
MEAN_ELEMENT_THEORY = SGP/SGP4

EPOCH          = 2026-03-09T23:03:19.833408
MEAN_MOTION    = 15.82145601
ECCENTRICITY   = .000177
INCLINATION    = 42.9986
RA_OF_ASC_NODE = 248.0951
ARG_OF_PERICENTER = 299.6042
MEAN_ANOMALY   = 60.4653

EPHEMERIS_TYPE = 0
CLASSIFICATION_TYPE = U
NORAD_CAT_ID   = 67909
ELEMENT_SET_NO = 999
REV_AT_EPOCH   = 371
BSTAR          = .18493E-2
MEAN_MOTION_DOT = .410368E-2
MEAN_MOTION_DDOT = 0

